NORAD_CAT_ID,OBJECT_NAME,OBJECT_TYPE,EPOCH,MEAN_MOTION,ECCENTRICITY,INCLINATION,RA_OF_ASC_NODE,ARG_OF_PERICENTER,MEAN_ANOMALY,BSTAR,MEAN_MOTION_DOT,MEAN_MOTION_DDOT,TLE_LINE0,TLE_LINE1,TLE_LINE2,SEMIMAJOR_AXIS,PERIOD,APOGEE,PERIGEE,DECAYED
55629.0,STARLINK-5497,PAYLOAD,2023-06-03 14:22:43,14.98323597,0.000333,69.9995,231.3639,268.9493,91.1285,-4.5022e-05,-6.3e-06,0.0,0 STARLINK-5497,1 55629U 23021B   23154.59911223 -.00000630  00000-0 -45022-4 0  9990,2 55629  69.9995 231.3639 0003330 268.9493  91.1285 14.98323597 16995,6950.213,96.107,574.392,569.763,0.0
55629.0,STARLINK-5497,PAYLOAD,2023-06-04 09:36:19,14.98331963,0.0003389,69.9995,229.3448,269.5396,90.5374,-5.9765e-06,-1.64e-06,0.0,0 STARLINK-5497,1 55629U 23021B   23155.40022690 -.00000164  00000-0 -59765-5 0  9994,2 55629  69.9995 229.3448 0003389 269.5396  90.5374 14.98331963 16812,6950.187,96.107,574.407,569.696,0.0
55629.0,STARLINK-5497,PAYLOAD,2023-06-04 14:24:43,14.98333084,0.0003408,69.9994,228.8397,269.6746,90.4023,-1.6679e-05,-2.92e-06,0.0,0 STARLINK-5497,1 55629U 23021B   23155.60050613 -.00000292  00000-0 -16679-4 0  9990,2 55629  69.9994 228.8397 0003408 269.6746  90.4023 14.98333084 17143,6950.183,96.107,574.417,569.68,0.0
55629.0,STARLINK-5497,PAYLOAD,2023-06-05 09:38:20,14.98325177,0.0003542,69.9988,226.819,269.4578,90.6175,7.0608e-05,7.49e-06,0.0,0 STARLINK-5497,1 55629U 23021B   23156.40162878  .00000749  00000-0  70608-4 0  9993,2 55629  69.9988 226.8190 0003542 269.4578  90.6175 14.98325177 16968,6950.208,96.107,574.535,569.611,0.0
55629.0,STARLINK-5497,PAYLOAD,2023-06-05 12:50:36,14.98327736,0.0003543,69.9988,226.4823,269.4889,90.5864,7.6853e-05,8.24e-06,0.0,0 STARLINK-5497,1 55629U 23021B   23156.53514724  .00000824  00000-0  76853-4 0  9990,2 55629  69.9988 226.4823 0003543 269.4889  90.5864 14.98327736 17286,6950.2,96.107,574.527,569.602,0.0
55629.0,STARLINK-5497,PAYLOAD,2023-06-05 14:26:44,14.98328361,0.000354,69.9988,226.314,269.5107,90.5646,8.1842e-05,8.84e-06,0.0,0 STARLINK-5497,1 55629U 23021B   23156.60190677  .00000884  00000-0  81842-4 0  9995,2 55629  69.9988 226.3140 0003540 269.5107  90.5646 14.98328361 17292,6950.198,96.107,574.523,569.603,0.0
55629.0,STARLINK-5497,PAYLOAD,2023-06-06 11:16:29,14.98332386,0.0003546,69.9987,224.1251,268.1656,91.9097,1.3935e-05,7.3e-07,0.0,0 STARLINK-5497,1 55629U 23021B   23157.46978589  .00000073  00000-0  13935-4 0  9994,2 55629  69.9987 224.1251 0003546 268.1656  91.9097 14.98332386 17422,6950.186,96.107,574.515,569.586,0.0
55629.0,STARLINK-5497,PAYLOAD,2023-06-06 14:28:45,14.98334012,0.0003541,69.9989,223.7885,268.3657,91.7096,3.319e-05,3.03e-06,0.0,0 STARLINK-5497,1 55629U 23021B   23157.60330402  .00000303  00000-0  33190-4 0  9997,2 55629  69.9989 223.7885 0003541 268.3657  91.7096 14.98334012 17144,6950.18,96.107,574.507,569.584,0.0
55629.0,STARLINK-5497,PAYLOAD,2023-06-07 08:06:14,14.98330502,0.0003547,69.9989,221.9372,268.4918,91.5835,6.5571e-06,-1.5e-07,0.0,0 STARLINK-5497,1 55629U 23021B   23158.33766607 -.00000015  00000-0  65571-5 0  9998,2 55629  69.9989 221.9372 0003547 268.4918  91.5835 14.98330502 17556,6950.191,96.107,574.522,569.591,0.0
55629.0,STARLINK-5497,PAYLOAD,2023-06-07 20:55:18,14.98329984,0.000354,69.999,220.5906,268.971,91.1043,-3.8985e-06,-1.4e-06,0.0,0 STARLINK-5497,1 55629U 23021B   23158.87174642 -.00000140  00000-0 -38985-5 0  9998,2 55629  69.9990 220.5906 0003540 268.9710  91.1043 14.98329984 17632,6950.193,96.107,574.518,569.598,0.0
55629.0,STARLINK-5497,PAYLOAD,2023-06-08 03:19:51,14.98331622,0.0003564,69.9989,219.9175,268.3124,91.7627,1.5929e-06,-7.4e-07,0.0,0 STARLINK-5497,1 55629U 23021B   23159.13878510 -.00000074  00000-0  15929-5 0  9991,2 55629  69.9989 219.9175 0003564 268.3124  91.7627 14.98331622 17376,6950.188,96.107,574.53,569.576,0.0
55629.0,STARLINK-5497,PAYLOAD,2023-06-08 12:56:39,14.98332622,0.0003586,69.9989,218.9078,267.9575,92.1173,-2.4445e-07,-9.6e-07,0.0,0 STARLINK-5497,1 55629U 23021B   23159.53934396 -.00000096  00000-0 -24445-6 0  9999,2 55629  69.9989 218.9078 0003586 267.9575  92.1173 14.98332622 17738,6950.185,96.107,574.542,569.557,0.0
55629.0,STARLINK-5497,PAYLOAD,2023-06-09 03:21:52,14.98328781,0.0003589,69.9991,217.393,269.5413,90.5334,1.3222e-05,6.5e-07,0.0,0 STARLINK-5497,1 55629U 23021B   23160.14018541  .00000065  00000-0  13222-4 0  9996,2 55629  69.9991 217.3930 0003589 269.5413  90.5334 14.98328781 17522,6950.197,96.107,574.556,569.567,0.0
55629.0,STARLINK-5497,PAYLOAD,2023-06-09 09:46:24,14.9832917,0.0003581,69.9991,216.7196,270.0511,90.0238,1.6119e-05,9.9e-07,0.0,0 STARLINK-5497,1 55629U 23021B   23160.40722524  .00000099  00000-0  16119-4 0  9993,2 55629  69.9991 216.7196 0003581 270.0511  90.0238 14.98329170 17865,6950.195,96.107,574.549,569.572,0.0
55629.0,STARLINK-5497,PAYLOAD,2023-06-09 20:59:20,14.98329809,0.000358,69.9991,215.5413,269.7284,90.3465,1.0114e-05,2.8e-07,0.0,0 STARLINK-5497,1 55629U 23021B   23160.87454504  .00000028  00000-0  10114-4 0  9995,2 55629  69.9991 215.5413 0003580 269.7284  90.3465 14.98329809 17937,6950.193,96.107,574.547,569.57,0.0
55629.0,STARLINK-5497,PAYLOAD,2023-06-10 03:23:52,14.98329681,0.0003588,69.999,214.8681,269.4721,90.6027,9.1285e-06,1.6e-07,0.0,0 STARLINK-5497,1 55629U 23021B   23161.14158506  .00000016  00000-0  91285-5 0  9995,2 55629  69.9990 214.8681 0003588 269.4721  90.6027 14.98329681 17672,6950.194,96.107,574.553,569.565,0.0
55629.0,STARLINK-5497,PAYLOAD,2023-06-10 13:00:41,14.98329474,0.0003631,69.9989,213.8581,269.0802,90.9941,-6.0471e-06,-1.65e-06,0.0,0 STARLINK-5497,1 55629U 23021B   23161.54214538 -.00000165  00000-0 -60471-5 0  9997,2 55629  69.9989 213.8581 0003631 269.0802  90.9941 14.98329474 18032,6950.195,96.107,574.583,569.536,0.0
55629.0,STARLINK-5497,PAYLOAD,2023-06-10 21:01:21,14.9832984,0.0003686,69.9987,213.0162,269.5988,90.4749,-6.1235e-06,-1.66e-06,0.0,0 STARLINK-5497,1 55629U 23021B   23161.87594489 -.00000166  00000-0 -61235-5 0  9999,2 55629  69.9987 213.0162 0003686 269.5988  90.4749 14.98329840 18080,6950.193,96.107,574.62,569.497,0.0
55629.0,STARLINK-5497,PAYLOAD,2023-06-11 03:25:53,14.9832825,0.0003714,69.9986,212.3427,269.1695,90.9038,3.5736e-05,3.33e-06,0.0,0 STARLINK-5497,1 55629U 23021B   23162.14298455  .00000333  00000-0  35736-4 0  9994,2 55629  69.9986 212.3427 0003714 269.1695  90.9038 14.98328250 17829,6950.198,96.107,574.645,569.482,0.0
55629.0,STARLINK-5497,PAYLOAD,2023-06-11 09:50:25,14.98331249,0.0003724,69.9986,211.6694,269.2586,90.8146,2.8578e-05,2.48e-06,0.0,0 STARLINK-5497,1 55629U 23021B   23162.41002296  .00000248  00000-0  28578-4 0  9991,2 55629  69.9986 211.6694 0003724 269.2586  90.8146 14.98331249 18167,6950.189,96.107,574.642,569.466,0.0
55629.0,STARLINK-5497,PAYLOAD,2023-06-11 21:03:22,14.98330985,0.0003741,69.9985,210.4911,269.2204,90.8527,1.4769e-05,8.3e-07,0.0,0 STARLINK-5497,1 55629U 23021B   23162.87734310  .00000083  00000-0  14769-4 0  9994,2 55629  69.9985 210.4911 0003741 269.2204  90.8527 14.98330985 18238,6950.19,96.107,574.655,569.455,0.0
55629.0,STARLINK-5497,PAYLOAD,2023-06-12 01:51:46,14.98330994,0.0003748,69.9987,209.9862,269.1559,90.9171,1.8744e-05,1.31e-06,0.0,0 STARLINK-5497,1 55629U 23021B   23163.07762279  .00000131  00000-0  18744-4 0  9993,2 55629  69.9987 209.9862 0003748 269.1559  90.9171 14.98330994 18266,6950.19,96.107,574.66,569.45,0.0
55629.0,STARLINK-5497,PAYLOAD,2023-06-12 08:16:18,14.98329141,0.0003808,69.9986,209.3131,268.8677,91.2045,3.2088e-05,2.9e-06,0.0,0 STARLINK-5497,1 55629U 23021B   23163.34466331  .00000290  00000-0  32088-4 0  9996,2 55629  69.9986 209.3131 0003808 268.8677  91.2045 14.98329141 18000,6950.196,96.107,574.707,569.414,0.0
55629.0,STARLINK-5497,PAYLOAD,2023-06-12 09:52:26,14.98331085,0.0003719,69.9986,209.1447,268.2634,91.8099,2.8173e-05,2.43e-06,0.0,0 STARLINK-5497,1 55629U 23021B   23163.41142215  .00000243  00000-0  28173-4 0  9994,2 55629  69.9986 209.1447 0003719 268.2634  91.8099 14.98331085 18315,6950.19,96.107,574.639,569.47,0.0
55629.0,STARLINK-5497,PAYLOAD,2023-06-13 01:53:47,14.98332223,0.0003425,69.9995,207.4621,268.5496,91.5271,3.7689e-05,3.57e-06,0.0,0 STARLINK-5497,1 55629U 23021B   23164.07902095  .00000357  00000-0  37689-4 0  9995,2 55629  69.9995 207.4621 0003425 268.5496  91.5271 14.98332223 18418,6950.186,96.107,574.431,569.671,0.0
55629.0,STARLINK-5497,PAYLOAD,2023-06-13 19:31:15,14.98353948,0.00037,69.9992,205.61,270.644,89.4296,-0.00043002,-5.224e-05,0.0,0 STARLINK-5497,1 55629U 23021B   23164.81337692 -.00005224  00000-0 -43002-3 0  9997,2 55629  69.9992 205.6100 0003700 270.6440  89.4296 14.98353948 18225,6950.119,96.105,574.555,569.412,0.0
55629.0,STARLINK-5497,PAYLOAD,2023-06-14 01:55:48,14.98336848,0.0003618,69.9988,204.9358,270.8031,89.2714,-8.5332e-05,-1.111e-05,0.0,0 STARLINK-5497,1 55629U 23021B   23165.08042134 -.00001111  00000-0 -85332-4 0  9995,2 55629  69.9988 204.9358 0003618 270.8031  89.2714 14.98336848 18260,6950.172,96.107,574.551,569.522,0.0
55629.0,STARLINK-5497,PAYLOAD,2023-06-14 19:33:16,14.98342856,0.0003747,69.9988,203.0845,265.605,94.4681,-0.00019236,-2.388e-05,0.0,0 STARLINK-5497,1 55629U 23021B   23165.81477795 -.00002388  00000-0 -19236-3 0  9997,2 55629  69.9988 203.0845 0003747 265.6050  94.4681 14.98342856 18679,6950.153,96.106,574.622,569.414,0.0
55629.0,STARLINK-5497,PAYLOAD,2023-06-15 01:57:49,14.983279,0.0003696,69.9984,202.4116,268.1322,91.9414,1.1043e-05,3.9e-07,0.0,0 STARLINK-5497,1 55629U 23021B   23166.08182289  .00000039  00000-0  11043-4 0  9996,2 55629  69.9984 202.4116 0003696 268.1322  91.9414 14.98327900 18413,6950.199,96.107,574.633,569.496,0.0
55629.0,STARLINK-5497,PAYLOAD,2023-06-15 11:34:37,14.98328043,0.0003717,69.9984,201.4018,267.3453,92.7281,1.0757e-05,3.5e-07,0.0,0 STARLINK-5497,1 55629U 23021B   23166.48238315  .00000035  00000-0  10757-4 0  9999,2 55629  69.9984 201.4018 0003717 267.3453  92.7281 14.98328043 18772,6950.199,96.107,574.647,569.481,0.0
